start=new Date('2023-05-22T00:00:00.000Z').valueOf();
sats=[{"NORAD_CAT_ID":"55962","GP_ID":"232286038","TIME_SYSTEM":"UTC","ARG_OF_PERICENTER":"274.7622","MEAN_MOTION_DOT":"0.00001316","DECAY_DATE":null,"FILE":"3914061","MEAN_ELEMENT_THEORY":"SGP4","MEAN_ANOMALY":"85.3147","MEAN_MOTION":"15.69928217","TLE_LINE1":"1 55962U 23037BA  23141.77567455  .00001316  00000-0  12712-4 0  9997","REV_AT_EPOCH":"1039","REF_FRAME":"TEME","RA_OF_ASC_NODE":"358.2839","SITE":"AFWTR","ECCENTRICITY":"0.00037320","PERIAPSIS":"356.590","INCLINATION":"69.9994","BSTAR":"0.00001271200000","TLE_LINE2":"2 55962  69.9994 358.2839 0003732 274.7622  85.3147 15.69928217 10399","COUNTRY_CODE":"US","SEMIMAJOR_AXIS":"6737.239","OBJECT_ID":"2023-037BA","EPHEMERIS_TYPE":"0","CENTER_NAME":"EARTH","ELEMENT_SET_NO":"999","OBJECT_NAME":"STARLINK-5906","RCS_SIZE":"LARGE","EPOCH":"2023-05-21T18:36:58.281120","LAUNCH_DATE":"2023-03-17","MEAN_MOTION_DDOT":"0.0000000000000","APOAPSIS":"361.619","OBJECT_TYPE":"PAYLOAD","CLASSIFICATION_TYPE":"U","PERIOD":"91.724"},{"BSTAR":"-0.00001845300000","TLE_LINE2":"2 55963  70.0002 358.2803 0003022 273.9976  86.0874 15.69912345 10399","COUNTRY_CODE":"US","OBJECT_ID":"2023-037BB","SEMIMAJOR_AXIS":"6737.285","EPHEMERIS_TYPE":"0","CENTER_NAME":"EARTH","ELEMENT_SET_NO":"999","OBJECT_NAME":"STARLINK-5924","EPOCH":"2023-05-21T18:37:07.914720","RCS_SIZE":"LARGE","LAUNCH_DATE":"2023-03-17","OBJECT_TYPE":"PAYLOAD","MEAN_MOTION_DDOT":"0.0000000000000","APOAPSIS":"361.186","PERIOD":"91.725","CLASSIFICATION_TYPE":"U","NORAD_CAT_ID":"55963","GP_ID":"232286288","ARG_OF_PERICENTER":"273.9976","TIME_SYSTEM":"UTC","MEAN_MOTION_DOT":"-0.00002429","DECAY_DATE":null,"FILE":"3914061","MEAN_ANOMALY":"86.0874","MEAN_ELEMENT_THEORY":"SGP4","TLE_LINE1":"1 55963U 23037BB  23141.77578605 -.00002429  00000-0 -18453-4 0  9993","MEAN_MOTION":"15.69912345","REV_AT_EPOCH":"1039","REF_FRAME":"TEME","SITE":"AFWTR","RA_OF_ASC_NODE":"358.2803","ECCENTRICITY":"0.00030220","INCLINATION":"70.0002","PERIAPSIS":"357.114"},{"BSTAR":"0.00001955000000","TLE_LINE2":"2 55964  69.9995 358.1061 0003530 274.4997  85.5795 15.69933052 10402","COUNTRY_CODE":"US","CENTER_NAME":"EARTH","ELEMENT_SET_NO":"999","SEMIMAJOR_AXIS":"6737.226","OBJECT_ID":"2023-037BC","EPHEMERIS_TYPE":"0","LAUNCH_DATE":"2023-03-17","OBJECT_NAME":"STARLINK-5895","RCS_SIZE":"LARGE","EPOCH":"2023-05-21T20:09:46.914912","APOAPSIS":"361.469","MEAN_MOTION_DDOT":"0.0000000000000","OBJECT_TYPE":"PAYLOAD","CLASSIFICATION_TYPE":"U","PERIOD":"91.724","TIME_SYSTEM":"UTC","ARG_OF_PERICENTER":"274.4997","NORAD_CAT_ID":"55964","GP_ID":"232286539","DECAY_DATE":null,"FILE":"3914061","MEAN_MOTION_DOT":"0.00002139","REV_AT_EPOCH":"1040","REF_FRAME":"TEME","MEAN_ELEMENT_THEORY":"SGP4","MEAN_ANOMALY":"85.5795","MEAN_MOTION":"15.69933052","TLE_LINE1":"1 55964U 23037BC  23141.84012633  .00002139  00000-0  19550-4 0  9991","PERIAPSIS":"356.712","INCLINATION":"69.9995","RA_OF_ASC_NODE":"358.1061","SITE":"AFWTR","ECCENTRICITY":"0.00035300"},{"EPOCH":"2023-05-21T18:36:22.210848","RCS_SIZE":"LARGE","OBJECT_NAME":"STARLINK-5894","LAUNCH_DATE":"2023-03-17","PERIOD":"91.725","CLASSIFICATION_TYPE":"U","OBJECT_TYPE":"PAYLOAD","APOAPSIS":"361.302","MEAN_MOTION_DDOT":"0.0000000000000","TLE_LINE2":"2 55965  70.0005 358.2792 0003216 277.2420  82.8410 15.69917463 10393","COUNTRY_CODE":"US","BSTAR":"-0.00000753900000","EPHEMERIS_TYPE":"0","OBJECT_ID":"2023-037BD","SEMIMAJOR_AXIS":"6737.270","ELEMENT_SET_NO":"999","CENTER_NAME":"EARTH","TLE_LINE1":"1 55965U 23037BD  23141.77525707 -.00001119  00000-0 -75390-5 0  9999","MEAN_MOTION":"15.69917463","MEAN_ELEMENT_THEORY":"SGP4","MEAN_ANOMALY":"82.8410","REF_FRAME":"TEME","REV_AT_EPOCH":"1039","ECCENTRICITY":"0.00032160","SITE":"AFWTR","RA_OF_ASC_NODE":"358.2792","INCLINATION":"70.0005","PERIAPSIS":"356.968","GP_ID":"232287290","NORAD_CAT_ID":"55965","TIME_SYSTEM":"UTC","ARG_OF_PERICENTER":"277.2420","MEAN_MOTION_DOT":"-0.00001119","FILE":"3914061","DECAY_DATE":null},{"MEAN_MOTION_DOT":"-0.00229693","DECAY_DATE":null,"FILE":"3913771","NORAD_CAT_ID":"55986","GP_ID":"232253867","ARG_OF_PERICENTER":"271.3625","TIME_SYSTEM":"UTC","RA_OF_ASC_NODE":"214.5947","SITE":"AFETR","ECCENTRICITY":"0.00013470","PERIAPSIS":"551.724","INCLINATION":"42.9980","MEAN_ELEMENT_THEORY":"SGP4","MEAN_ANOMALY":"202.2789","MEAN_MOTION":"15.04625384","TLE_LINE1":"1 55986U 23042A   23141.91667824 -.00229693  00000-0 -16597-1 0  9990","REV_AT_EPOCH":"939","REF_FRAME":"TEME","SEMIMAJOR_AXIS":"6930.793","OBJECT_ID":"2023-042A","EPHEMERIS_TYPE":"0","CENTER_NAME":"EARTH","ELEMENT_SET_NO":"999","BSTAR":"-0.01659700000000","TLE_LINE2":"2 55986  42.9980 214.5947 0001347 271.3625 202.2789 15.04625384  9399","COUNTRY_CODE":"US","MEAN_MOTION_DDOT":"0.0000000000000","APOAPSIS":"553.591","OBJECT_TYPE":"PAYLOAD","CLASSIFICATION_TYPE":"U","PERIOD":"95.705","OBJECT_NAME":"STARLINK-5905","RCS_SIZE":"LARGE","EPOCH":"2023-05-21T22:00:00.999936","LAUNCH_DATE":"2023-03-24"},{"LAUNCH_DATE":"2023-03-24","OBJECT_NAME":"STARLINK-5915","EPOCH":"2023-05-21T22:00:00.999936","RCS_SIZE":"LARGE","OBJECT_TYPE":"PAYLOAD","APOAPSIS":"548.955","MEAN_MOTION_DDOT":"0.0000000000000","PERIOD":"95.608","CLASSIFICATION_TYPE":"U","BSTAR":"-0.06910100000000","COUNTRY_CODE":"US","TLE_LINE2":"2 55987  42.9990 214.3242 0001378 270.2751 317.3325 15.06143193  1301","CENTER_NAME":"EARTH","ELEMENT_SET_NO":"999","OBJECT_ID":"2023-042B","SEMIMAJOR_AXIS":"6926.136","EPHEMERIS_TYPE":"0","REV_AT_EPOCH":"130","REF_FRAME":"TEME","MEAN_ELEMENT_THEORY":"SGP4","MEAN_ANOMALY":"317.3325","TLE_LINE1":"1 55987U 23042B   23141.91667824 -.00947773  00000-0 -69101-1 0  9996","MEAN_MOTION":"15.06143193","INCLINATION":"42.9990","PERIAPSIS":"547.046","SITE":"AFETR","RA_OF_ASC_NODE":"214.3242","ECCENTRICITY":"0.00013780","ARG_OF_PERICENTER":"270.2751","TIME_SYSTEM":"UTC","NORAD_CAT_ID":"55987","GP_ID":"232286541","DECAY_DATE":null,"FILE":"3914061","MEAN_MOTION_DOT":"-0.00947773"},{"PERIAPSIS":"544.887","INCLINATION":"42.9993","RA_OF_ASC_NODE":"214.6668","SITE":"AFETR","ECCENTRICITY":"0.00006560","REV_AT_EPOCH":"904","REF_FRAME":"TEME","MEAN_ANOMALY":"37.6383","MEAN_ELEMENT_THEORY":"SGP4","MEAN_MOTION":"15.07011150","TLE_LINE1":"1 55988U 23042C   23141.89004087 -.00271881  00000-0 -18530-1 0  9990","DECAY_DATE":null,"FILE":"3914061","MEAN_MOTION_DOT":"-0.00271881","TIME_SYSTEM":"UTC","ARG_OF_PERICENTER":"322.4415","NORAD_CAT_ID":"55988","GP_ID":"232287292","APOAPSIS":"545.795","MEAN_MOTION_DDOT":"0.0000000000000","OBJECT_TYPE":"PAYLOAD","CLASSIFICATION_TYPE":"U","PERIOD":"95.553","LAUNCH_DATE":"2023-03-24","OBJECT_NAME":"STARLINK-5916","RCS_SIZE":"LARGE","EPOCH":"2023-05-21T21:21:39.531168","CENTER_NAME":"EARTH","ELEMENT_SET_NO":"999","SEMIMAJOR_AXIS":"6923.476","OBJECT_ID":"2023-042C","EPHEMERIS_TYPE":"0","BSTAR":"-0.01853000000000","TLE_LINE2":"2 55988  42.9993 214.6668 0000656 322.4415  37.6383 15.07011150  9048","COUNTRY_CODE":"US"},{"LAUNCH_DATE":"2023-03-24","EPOCH":"2023-05-21T21:14:52.516320","RCS_SIZE":"LARGE","OBJECT_NAME":"STARLINK-5947","PERIOD":"95.534","CLASSIFICATION_TYPE":"U","OBJECT_TYPE":"PAYLOAD","APOAPSIS":"544.872","MEAN_MOTION_DDOT":"0.0000000000000","TLE_LINE2":"2 55989  42.9989 214.6305 0000680   5.5423 354.5429 15.07317973  9041","COUNTRY_CODE":"US","BSTAR":"-0.01836100000000","ELEMENT_SET_NO":"999","CENTER_NAME":"EARTH","EPHEMERIS_TYPE":"0","OBJECT_ID":"2023-042D","SEMIMAJOR_AXIS":"6922.537","REF_FRAME":"TEME","REV_AT_EPOCH":"904","TLE_LINE1":"1 55989U 23042D   23141.88533005 -.00271672  00000-0 -18361-1 0  9997","MEAN_MOTION":"15.07317973","MEAN_ELEMENT_THEORY":"SGP4","MEAN_ANOMALY":"354.5429","INCLINATION":"42.9989","PERIAPSIS":"543.931","ECCENTRICITY":"0.00006800","SITE":"AFETR","RA_OF_ASC_NODE":"214.6305","ARG_OF_PERICENTER":"5.5423","TIME_SYSTEM":"UTC","GP_ID":"232285540","NORAD_CAT_ID":"55989","FILE":"3914061","DECAY_DATE":null,"MEAN_MOTION_DOT":"-0.00271672"},{"LAUNCH_DATE":"2023-03-24","OBJECT_NAME":"STARLINK-5946","RCS_SIZE":"LARGE","EPOCH":"2023-05-21T21:26:28.025952","APOAPSIS":"546.742","MEAN_MOTION_DDOT":"0.0000000000000","OBJECT_TYPE":"PAYLOAD","CLASSIFICATION_TYPE":"U","PERIOD":"95.567","BSTAR":"-0.01854400000000","TLE_LINE2":"2 55990  42.9989 214.6931 0001075 348.7699  11.3121 15.06796948  9043","COUNTRY_CODE":"US","CENTER_NAME":"EARTH","ELEMENT_SET_NO":"999","SEMIMAJOR_AXIS":"6924.132","OBJECT_ID":"2023-042E","EPHEMERIS_TYPE":"0","REV_AT_EPOCH":"904","REF_FRAME":"TEME","MEAN_ANOMALY":"11.3121","MEAN_ELEMENT_THEORY":"SGP4","MEAN_MOTION":"15.06796948","TLE_LINE1":"1 55990U 23042E   23141.89337993 -.00270564  00000-0 -18544-1 0  9990","PERIAPSIS":"545.253","INCLINATION":"42.9989","RA_OF_ASC_NODE":"214.6931","SITE":"AFETR","ECCENTRICITY":"0.00010750","ARG_OF_PERICENTER":"348.7699","TIME_SYSTEM":"UTC","NORAD_CAT_ID":"55990","GP_ID":"232285790","DECAY_DATE":null,"FILE":"3914061","MEAN_MOTION_DOT":"-0.00270564"},{"MEAN_ELEMENT_THEORY":"SGP4","MEAN_ANOMALY":"308.6490","TLE_LINE1":"1 55991U 23042F   23141.93388833 -.00276795  00000-0 -18182-1 0  9995","MEAN_MOTION":"15.08383790","REV_AT_EPOCH":"905","REF_FRAME":"TEME","SITE":"AFETR","RA_OF_ASC_NODE":"214.1364","ECCENTRICITY":"0.00012800","INCLINATION":"43.0002","PERIAPSIS":"540.255","NORAD_CAT_ID":"55991","GP_ID":"232287042","TIME_SYSTEM":"UTC","ARG_OF_PERICENTER":"51.4469","MEAN_MOTION_DOT":"-0.00276795","DECAY_DATE":null,"FILE":"3914061","OBJECT_NAME":"STARLINK-5948","EPOCH":"2023-05-21T22:24:47.951712","RCS_SIZE":"LARGE","LAUNCH_DATE":"2023-03-24","OBJECT_TYPE":"PAYLOAD","APOAPSIS":"542.026","MEAN_MOTION_DDOT":"0.0000000000000","PERIOD":"95.466","CLASSIFICATION_TYPE":"U","BSTAR":"-0.01818200000000","COUNTRY_CODE":"US","TLE_LINE2":"2 55991  43.0002 214.1364 0001280  51.4469 308.6490 15.08383790  9059","OBJECT_ID":"2023-042F","SEMIMAJOR_AXIS":"6919.275","EPHEMERIS_TYPE":"0","CENTER_NAME":"EARTH","ELEMENT_SET_NO":"999"}];
